[
    {
        "Altitude(m)": 612502.2481621031,
        "Argument of Periapsis(deg)": 0.0,
        "Eccentricity": 0.0,
        "Inclination(deg)": 60.0,
        "Latitude(deg)": -28.13614642297707,
        "Longitude(deg)": -112.85178013579545,
        "Mean Anomaly(deg)": 327.2727,
        "RAAN(deg)": 5.0,
        "Satellite Name": "Test1 42",
        "Satellite Number": 42,
        "Semi-Major Axis(m)": 6980739.136638005,
        "Time(s)": 0
    },
    {
        "Altitude(m)": 612308.6955044139,
        "Argument of Periapsis(deg)": 0.00010418945913296404,
        "Eccentricity": 0.0,
        "Inclination(deg)": 60.0,
        "Latitude(deg)": -27.623202084191963,
        "Longitude(deg)": -112.49830479937606,
        "Mean Anomaly(deg)": 327.8928061454618,
        "RAAN(deg)": 4.999579950860257,
        "Satellite Name": "Test1 42",
        "Satellite Number": 42,
        "Semi-Major Axis(m)": 6980739.136638005,
        "Time(s)": 10
    },
    {
        "Altitude(m)": 612116.1117284255,
        "Argument of Periapsis(deg)": 0.0002083789182659281,
        "Eccentricity": 0.0,
        "Inclination(deg)": 60.0,
        "Latitude(deg)": -27.109088873802243,
        "Longitude(deg)": -112.14848065330644,
        "Mean Anomaly(deg)": 328.5129122909236,
        "RAAN(deg)": 4.999159901720515,
        "Satellite Name": "Test1 42",
        "Satellite Number": 42,
        "Semi-Major Axis(m)": 6980739.136638005,
        "Time(s)": 20
    },
    {
        "Altitude(m)": 611924.5664209883,
        "Argument of Periapsis(deg)": 0.00031256837739889213,
        "Eccentricity": 0.0,
        "Inclination(deg)": 60.0,
        "Latitude(deg)": -26.593841107502993,
        "Longitude(deg)": -111.80220328043247,
        "Mean Anomaly(deg)": 329.1330184363855,
        "RAAN(deg)": 4.998739852580773,
        "Satellite Name": "Test1 42",
        "Satellite Number": 42,
        "Semi-Major Axis(m)": 6980739.136638005,
        "Time(s)": 30
    },
    {
        "Altitude(m)": 611734.1285623536,
        "Argument of Periapsis(deg)": 0.0004167578365318562,
        "Eccentricity": 0.0,
        "Inclination(deg)": 60.0,
        "Latitude(deg)": -26.077492251636034,
        "Longitude(deg)": -111.45936998121346,
        "Mean Anomaly(deg)": 329.75312458184726,
        "RAAN(deg)": 4.99831980344103,
        "Satellite Name": "Test1 42",
        "Satellite Number": 42,
        "Semi-Major Axis(m)": 6980739.136638005,
        "Time(s)": 40
    },
    {
        "Altitude(m)": 611544.8664956556,
        "Argument of Periapsis(deg)": 0.0005209472956648203,
        "Eccentricity": 0.0,
        "Inclination(deg)": 60.0,
        "Latitude(deg)": -25.560074955590945,
        "Longitude(deg)": -111.11988071846297,
        "Mean Anomaly(deg)": 330.3732307273092,
        "RAAN(deg)": 4.997899754301287,
        "Satellite Name": "Test1 42",
        "Satellite Number": 42,
        "Semi-Major Axis(m)": 6980739.136638005,
        "Time(s)": 50
    },
    {
        "Altitude(m)": 611356.847896695,
        "Argument of Periapsis(deg)": 0.0006251367547977843,
        "Eccentricity": 0.0,
        "Inclination(deg)": 60.0,
        "Latitude(deg)": -25.041621083104406,
        "Longitude(deg)": -110.783637549969,
        "Mean Anomaly(deg)": 330.99333687277095,
        "RAAN(deg)": 4.9974797051615445,
        "Satellite Name": "Test1 42",
        "Satellite Number": 42,
        "Semi-Major Axis(m)": 6980739.136638005,
        "Time(s)": 60
    },
    {
        "Altitude(m)": 611170.1397440063,
        "Argument of Periapsis(deg)": 0.0007293262139307483,
        "Eccentricity": 0.0,
        "Inclination(deg)": 60.0,
        "Latitude(deg)": -24.522161742493303,
        "Longitude(deg)": -110.4505440619273,
        "Mean Anomaly(deg)": 331.61344301823283,
        "RAAN(deg)": 4.9970596560218015,
        "Satellite Name": "Test1 42",
        "Satellite Number": 42,
        "Semi-Major Axis(m)": 6980739.136638005,
        "Time(s)": 70
    },
    {
        "Altitude(m)": 610984.8082892388,
        "Argument of Periapsis(deg)": 0.0008335156730637124,
        "Eccentricity": 0.0,
        "Inclination(deg)": 60.0,
        "Latitude(deg)": -24.00172731585783,
        "Longitude(deg)": -110.1205063161125,
        "Mean Anomaly(deg)": 332.23354916369465,
        "RAAN(deg)": 4.996639606882058,
        "Satellite Name": "Test1 42",
        "Satellite Number": 42,
        "Semi-Major Axis(m)": 6980739.136638005,
        "Time(s)": 80
    },
    {
        "Altitude(m)": 610800.9190278682,
        "Argument of Periapsis(deg)": 0.0009377051321966765,
        "Eccentricity": 0.0,
        "Inclination(deg)": 60.0,
        "Latitude(deg)": -23.48034748729401,
        "Longitude(deg)": -109.79343228508057,
        "Mean Anomaly(deg)": 332.85365530915647,
        "RAAN(deg)": 4.996219557742316,
        "Satellite Name": "Test1 42",
        "Satellite Number": 42,
        "Semi-Major Axis(m)": 6980739.136638005,
        "Time(s)": 90
    },
    {
        "Altitude(m)": 610618.5366702761,
        "Argument of Periapsis(deg)": 0.0010418945913296407,
        "Eccentricity": 0.0,
        "Inclination(deg)": 60.0,
        "Latitude(deg)": -22.958051270150808,
        "Longitude(deg)": -109.46923128830926,
        "Mean Anomaly(deg)": 333.47376145461834,
        "RAAN(deg)": 4.995799508602573,
        "Satellite Name": "Test1 42",
        "Satellite Number": 42,
        "Semi-Major Axis(m)": 6980739.136638005,
        "Time(s)": 100
    },
    {
        "Altitude(m)": 610437.7251131623,
        "Argument of Periapsis(deg)": 0.0011460840504626045,
        "Eccentricity": 0.0,
        "Inclination(deg)": 60.0,
        "Latitude(deg)": -22.434867033365116,
        "Longitude(deg)": -109.14781494217763,
        "Mean Anomaly(deg)": 334.0938676000801,
        "RAAN(deg)": 4.995379459462831,
        "Satellite Name": "Test1 42",
        "Satellite Number": 42,
        "Semi-Major Axis(m)": 6980739.136638005,
        "Time(s)": 110
    },
    {
        "Altitude(m)": 610258.5474113413,
        "Argument of Periapsis(deg)": 0.0012502735095955685,
        "Eccentricity": 0.0,
        "Inclination(deg)": 60.0,
        "Latitude(deg)": -21.910822526911677,
        "Longitude(deg)": -108.82909659805456,
        "Mean Anomaly(deg)": 334.713973745542,
        "RAAN(deg)": 4.994959410323088,
        "Satellite Name": "Test1 42",
        "Satellite Number": 42,
        "Semi-Major Axis(m)": 6980739.136638005,
        "Time(s)": 120
    },
    {
        "Altitude(m)": 610081.0657499314,
        "Argument of Periapsis(deg)": 0.0013544629687285324,
        "Eccentricity": 0.0,
        "Inclination(deg)": 60.0,
        "Latitude(deg)": -21.385944906401473,
        "Longitude(deg)": -108.51299078138501,
        "Mean Anomaly(deg)": 335.3340798910038,
        "RAAN(deg)": 4.994539361183345,
        "Satellite Name": "Test1 42",
        "Satellite Number": 42,
        "Semi-Major Axis(m)": 6980739.136638005,
        "Time(s)": 130
    },
    {
        "Altitude(m)": 609905.3414169414,
        "Argument of Periapsis(deg)": 0.0014586524278614966,
        "Eccentricity": 0.0,
        "Inclination(deg)": 60.0,
        "Latitude(deg)": -20.860260756858363,
        "Longitude(deg)": -108.19941414465512,
        "Mean Anomaly(deg)": 335.9541860364656,
        "RAAN(deg)": 4.994119312043602,
        "Satellite Name": "Test1 42",
        "Satellite Number": 42,
        "Semi-Major Axis(m)": 6980739.136638005,
        "Time(s)": 140
    },
    {
        "Altitude(m)": 609731.434776283,
        "Argument of Periapsis(deg)": 0.0015628418869944607,
        "Eccentricity": 0.0,
        "Inclination(deg)": 60.0,
        "Latitude(deg)": -20.333796115710147,
        "Longitude(deg)": -107.88828490849207,
        "Mean Anomaly(deg)": 336.57429218192743,
        "RAAN(deg)": 4.99369926290386,
        "Satellite Name": "Test1 42",
        "Satellite Number": 42,
        "Semi-Major Axis(m)": 6980739.136638005,
        "Time(s)": 150
    },
    {
        "Altitude(m)": 609559.4052412043,
        "Argument of Periapsis(deg)": 0.0016670313461274247,
        "Eccentricity": 0.0,
        "Inclination(deg)": 60.0,
        "Latitude(deg)": -19.80657649502236,
        "Longitude(deg)": -107.57952230377099,
        "Mean Anomaly(deg)": 337.19439832738925,
        "RAAN(deg)": 4.993279213764118,
        "Satellite Name": "Test1 42",
        "Satellite Number": 42,
        "Semi-Major Axis(m)": 6980739.136638005,
        "Time(s)": 160
    },
    {
        "Altitude(m)": 609389.3112481781,
        "Argument of Periapsis(deg)": 0.0017712208052603888,
        "Eccentricity": 0.0,
        "Inclination(deg)": 60.0,
        "Latitude(deg)": -19.278626903005456,
        "Longitude(deg)": -107.27304752759956,
        "Mean Anomaly(deg)": 337.81450447285107,
        "RAAN(deg)": 4.992859164624375,
        "Satellite Name": "Test1 42",
        "Satellite Number": 42,
        "Semi-Major Axis(m)": 6980739.136638005,
        "Time(s)": 170
    },
    {
        "Altitude(m)": 609221.2102312399,
        "Argument of Periapsis(deg)": 0.001875410264393353,
        "Eccentricity": 0.0,
        "Inclination(deg)": 60.0,
        "Latitude(deg)": -18.749971864826172,
        "Longitude(deg)": -106.9687831874228,
        "Mean Anomaly(deg)": 338.43461061831295,
        "RAAN(deg)": 4.992439115484632,
        "Satellite Name": "Test1 42",
        "Satellite Number": 42,
        "Semi-Major Axis(m)": 6980739.136638005,
        "Time(s)": 180
    },
    {
        "Altitude(m)": 609055.1585968074,
        "Argument of Periapsis(deg)": 0.0019795997235263173,
        "Eccentricity": 0.0,
        "Inclination(deg)": 60.0,
        "Latitude(deg)": -18.220635442750922,
        "Longitude(deg)": -106.66665274611158,
        "Mean Anomaly(deg)": 339.0547167637747,
        "RAAN(deg)": 4.992019066344889,
        "Satellite Name": "Test1 42",
        "Satellite Number": 42,
        "Semi-Major Axis(m)": 6980739.136638005,
        "Time(s)": 190
    }
]